{
  "type": "FeatureCollection",
  "features": [
    {
      "type": "Feature",
      "properties": {
        "shapeName": "SAHEL",
        "shapeISO": "",
        "shapeID": "37247803B38142631960117",
        "shapeGroup": "EGY",
        "shapeType": "ADM2"
      },
      "geometry": {
        "type": "Polygon",
        "coordinates": [
          [
            [29.560648220000076, 30.983109651000063],
            [29.548766785000055, 30.975421203000053],
            [29.517496618000052, 30.960382084000059],
            [29.46032324600003, 30.929259375000072],
            [29.423987794000027, 30.912619323000058],
            [29.376714747000051, 30.896248713000034],
            [29.379046237000068, 30.892450749000034],
            [29.424742184000024, 30.908819039000036],
            [29.491341008000063, 30.939846375000059],
            [29.563811722000025, 30.979910563000033],
            [29.560648220000076, 30.983109651000063]
          ]
        ]
      }
    }
  ]
}
