{
  "type": "FeatureCollection",
  "features": [
    {
      "type": "Feature",
      "id": "project-1",
      "properties": {
        "name": "Katameya Heights",
        "image": "./images/ora-apartment.jpeg",
        "developer": "Ora Developers",
        "area": "Katameya",
        "price": "10,550,734 EGP"
      },
      "geometry": {
        "type": "Polygon",
        "coordinates": [
          [
            [31.467829, 30.026917],
            [31.468306, 30.027511],
            [31.469142, 30.028293],
            [31.469894, 30.029067],
            [31.470372, 30.029661],
            [31.47085, 30.030255],
            [31.47085, 30.031152],
            [31.470372, 30.032043],
            [31.469894, 30.032637],
            [31.469142, 30.033411],
            [31.468306, 30.034193],
            [31.467829, 30.034787],
            [31.466995, 30.035097],
            [31.46616, 30.035407],
            [31.465326, 30.035407],
            [31.464492, 30.035097],
            [31.464014, 30.034503],
            [31.463536, 30.033909],
            [31.463536, 30.033012],
            [31.464014, 30.032121],
            [31.464492, 30.031527],
            [31.465326, 30.030753],
            [31.46616, 30.029971],
            [31.466995, 30.029661],
            [31.467829, 30.026917]
          ]
        ]
      }
    },
    {
      "type": "Feature",
      "id": "project-2",
      "properties": {
        "name": "Palm Hills October",
        "image": "./images/ora-apartment.jpeg",
        "developer": "Ora Developers",
        "area": "6th of October",
        "price": "8,200,000 EGP"
      },
      "geometry": {
        "type": "Polygon",
        "coordinates": [
          [
            [30.955, 29.991],
            [30.96, 29.995],
            [30.958, 29.998],
            [30.953, 29.994],
            [30.955, 29.991]
          ]
        ]
      }
    },
    {
      "type": "Feature",
      "id": "project-3",
      "properties": {
        "name": "Mountain View New Cairo",
        "image": "./images/ora-apartment.jpeg",
        "developer": "Ora Developers",
        "area": "New Cairo",
        "price": "12,300,000 EGP"
      },
      "geometry": {
        "type": "Polygon",
        "coordinates": [
          [
            [31.115, 30.0105],
            [31.12, 30.014],
            [31.118, 30.016],
            [31.113, 30.0125],
            [31.115, 30.0105]
          ]
        ]
      }
    },
    {
      "type": "Feature",
      "id": "project-4",
      "properties": {
        "name": "New Cairo Residences",
        "image": "./images/ora-apartment.jpeg",
        "developer": "Ora Developers",
        "area": "New Cairo",
        "price": "9,500,000 EGP"
      },
      "geometry": {
        "type": "Polygon",
        "coordinates": [
          [
            [31.105, 30.02],
            [31.11, 30.023],
            [31.108, 30.025],
            [31.103, 30.021],
            [31.105, 30.02]
          ]
        ]
      }
    },
    {
      "type": "Feature",
      "id": "project-5",
      "properties": {
        "name": "Cairo Festival City",
        "image": "./images/ora-apartment.jpeg",
        "developer": "Ora Developers",
        "area": "New Cairo",
        "price": "18,000,000 EGP"
      },
      "geometry": {
        "type": "Polygon",
        "coordinates": [
          [
            [31.43632, 30.028051],
            [31.439234, 30.02756],
            [31.440545, 30.029378],
            [31.437852, 30.030328],
            [31.43632, 30.028051]
          ]
        ]
      }
    },
    {
      "type": "Feature",
      "id": "project-6",
      "properties": {
        "name": "Mountain View iCity",
        "image": "./images/ora-apartment.jpeg",
        "developer": "Ora Developers",
        "area": "New Cairo",
        "price": "12,500,000 EGP"
      },
      "geometry": {
        "type": "Polygon",
        "coordinates": [
          [
            [31.523442, 30.0421],
            [31.5248, 30.0427],
            [31.5241, 30.0439],
            [31.5226, 30.0432],
            [31.523442, 30.0421]
          ]
        ]
      }
    },
    {
      "type": "Feature",
      "id": "project-7",
      "properties": {
        "name": "Palm Hills New Cairo",
        "image": "./images/ora-apartment.jpeg",
        "developer": "Ora Developers",
        "area": "New Cairo",
        "price": "14,200,000 EGP"
      },
      "geometry": {
        "type": "Polygon",
        "coordinates": [
          [
            [31.500321, 30.008741],
            [31.501821, 30.008741],
            [31.501821, 30.010241],
            [31.500321, 30.010241],
            [31.500321, 30.008741]
          ]
        ]
      }
    }
    
  ]
}
